{"type": "FeatureCollection", "features": [ {"type": "Feature", "properties": {"norad_id": 67101, "name": "STARLINK-36200", "group": "last-30-days", "lat": 13.718521987204031, "lon": -143.80975923153136, "alt_km": 341.9383271119559, "timestamp": "2025-12-26T09:30:52.345404+00:00", "meta": {"OBJECT_NAME": "STARLINK-36200", "OBJECT_ID": "2025-298AC", "EPOCH": "2025-12-26T04:00:01.998720", "MEAN_MOTION": 15.77240771, "ECCENTRICITY": 0.0003457, "INCLINATION": 69.9961, "RA_OF_ASC_NODE": 211.7402, "ARG_OF_PERICENTER": 272.7852, "MEAN_ANOMALY": 238.1493, "EPHEMERIS_TYPE": 0, "CLASSIFICATION_TYPE": "U", "NORAD_CAT_ID": 67101, "ELEMENT_SET_NO": 999, "REV_AT_EPOCH": 313, "BSTAR": -0.012236, "MEAN_MOTION_DOT": -0.01773101, "MEAN_MOTION_DDOT": 0}, "tle": {"line1": "1 67101U 25298AC  25360.16668980 -.01773101  00000+0 -12236-1 0  9997", "line2": "2 67101  69.9961 211.7402 0003457 272.7852 238.1493 15.77240771  3134"}}, "geometry": {"type": "Point", "coordinates": [-143.80975923153136, 13.718521987204031]}}, {"type": "Feature", "properties": {"norad_id": 67102, "name": "STARLINK-36255", "group": "last-30-days", "lat": -42.95864912528627, "lon": 140.99238723884935, "alt_km": 334.6036661478829, "timestamp": "2025-12-26T09:30:52.345414+00:00", "meta": {"OBJECT_NAME": "STARLINK-36255", "OBJECT_ID": "2025-299A", "EPOCH": "2025-12-26T04:00:01.998720", "MEAN_MOTION": 15.80189865, "ECCENTRICITY": 0.0001757, "INCLINATION": 42.9968, "RA_OF_ASC_NODE": 234.3842, "ARG_OF_PERICENTER": 281.7727, "MEAN_ANOMALY": 118.5696, "EPHEMERIS_TYPE": 0, "CLASSIFICATION_TYPE": "U", "NORAD_CAT_ID": 67102, "ELEMENT_SET_NO": 999, "REV_AT_EPOCH": 296, "BSTAR": -0.010302, "MEAN_MOTION_DOT": -0.01758291, "MEAN_MOTION_DDOT": 0}, "tle": {"line1": "1 67102U 25299A   25360.16668980 -.01758291  00000+0 -10302-1 0  9994", "line2": "2 67102  42.9968 234.3842 0001757 281.7727 118.5696 15.80189865  2960"}}, "geometry": {"type": "Point", "coordinates": [140.99238723884935, -42.95864912528627]}}, {"type": "Feature", "properties": {"norad_id": 67103, "name": "STARLINK-36256", "group": "last-30-days", "lat": -42.975821446110544, "lon": 142.89586261652886, "alt_km": 334.6576501691343, "timestamp": "2025-12-26T09:30:52.345424+00:00", "meta": {"OBJECT_NAME": "STARLINK-36256", "OBJECT_ID": "2025-299B", "EPOCH": "2025-12-26T04:00:01.998720", "MEAN_MOTION": 15.80213366, "ECCENTRICITY": 0.000153, "INCLINATION": 42.9968, "RA_OF_ASC_NODE": 234.381, "ARG_OF_PERICENTER": 274.4607, "MEAN_ANOMALY": 127.2568, "EPHEMERIS_TYPE": 0, "CLASSIFICATION_TYPE": "U", "NORAD_CAT_ID": 67103, "ELEMENT_SET_NO": 999, "REV_AT_EPOCH": 296, "BSTAR": -0.01032, "MEAN_MOTION_DOT": -0.01762421, "MEAN_MOTION_DDOT": 0}, "tle": {"line1": "1 67103U 25299B   25360.16668980 -.01762421  00000+0 -10320-1 0  9995", "line2": "2 67103  42.9968 234.3810 0001530 274.4607 127.2568 15.80213366  2960"}}, "geometry": {"type": "Point", "coordinates": [142.89586261652886, -42.975821446110544]}}, {"type": "Feature", "properties": {"norad_id": 67104, "name": "STARLINK-36258", "group": "last-30-days", "lat": -42.95836153844924, "lon": 144.98298407164995, "alt_km": 334.4912274492226, "timestamp": "2025-12-26T09:30:52.345434+00:00", "meta": {"OBJECT_NAME": "STARLINK-36258", "OBJECT_ID": "2025-299C", "EPOCH": "2025-12-26T04:00:01.998720", "MEAN_MOTION": 15.8021985, "ECCENTRICITY": 0.0001775, "INCLINATION": 42.9969, "RA_OF_ASC_NODE": 234.377, "ARG_OF_PERICENTER": 283.4499, "MEAN_ANOMALY": 119.7962, "EPHEMERIS_TYPE": 0, "CLASSIFICATION_TYPE": "U", "NORAD_CAT_ID": 67104, "ELEMENT_SET_NO": 999, "REV_AT_EPOCH": 296, "BSTAR": -0.010252, "MEAN_MOTION_DOT": -0.01752897, "MEAN_MOTION_DDOT": 0}, "tle": {"line1": "1 67104U 25299C   25360.16668980 -.01752897  00000+0 -10252-1 0  9996", "line2": "2 67104  42.9969 234.3770 0001775 283.4499 119.7962 15.80219850  2965"}}, "geometry": {"type": "Point", "coordinates": [144.98298407164995, -42.95836153844924]}}, {"type": "Feature", "properties": {"norad_id": 67105, "name": "STARLINK-36261", "group": "last-30-days", "lat": -42.91199955594672, "lon": 146.79844625312128, "alt_km": 334.42272001069523, "timestamp": "2025-12-26T09:30:52.345446+00:00", "meta": {"OBJECT_NAME": "STARLINK-36261", "OBJECT_ID": "2025-299D", "EPOCH": "2025-12-26T04:00:01.998720", "MEAN_MOTION": 15.80244129, "ECCENTRICITY": 0.0001737, "INCLINATION": 42.9968, "RA_OF_ASC_NODE": 234.3737, "ARG_OF_PERICENTER": 279.4425, "MEAN_ANOMALY": 125.1162, "EPHEMERIS_TYPE": 0, "CLASSIFICATION_TYPE": "U", "NORAD_CAT_ID": 67105, "ELEMENT_SET_NO": 999, "REV_AT_EPOCH": 296, "BSTAR": -0.010254, "MEAN_MOTION_DOT": -0.0175494, "MEAN_MOTION_DDOT": 0}, "tle": {"line1": "1 67105U 25299D   25360.16668980 -.01754940  00000+0 -10254-1 0  9990", "line2": "2 67105  42.9968 234.3737 0001737 279.4425 125.1162 15.80244129  2960"}}, "geometry": {"type": "Point", "coordinates": [146.79844625312128, -42.91199955594672]}}, {"type": "Feature", "properties": {"norad_id": 67106, "name": "STARLINK-36259", "group": "last-30-days", "lat": -42.66851795544152, "lon": 151.35227262459378, "alt_km": 334.27267749861585, "timestamp": "2025-12-26T09:30:52.345482+00:00", "meta": {"OBJECT_NAME": "STARLINK-36259", "OBJECT_ID": "2025-299E", "EPOCH": "2025-12-26T04:00:01.998720", "MEAN_MOTION": 15.80266525, "ECCENTRICITY": 0.0001845, "INCLINATION": 42.9969, "RA_OF_ASC_NODE": 234.3654, "ARG_OF_PERICENTER": 272.9055, "MEAN_ANOMALY": 134.9939, "EPHEMERIS_TYPE": 0, "CLASSIFICATION_TYPE": "U", "NORAD_CAT_ID": 67106, "ELEMENT_SET_NO": 999, "REV_AT_EPOCH": 296, "BSTAR": -0.010288, "MEAN_MOTION_DOT": -0.01761801, "MEAN_MOTION_DDOT": 0}, "tle": {"line1": "1 67106U 25299E   25360.16668980 -.01761801  00000+0 -10288-1 0  9992", "line2": "2 67106  42.9969 234.3654 0001845 272.9055 134.9939 15.80266525  2961"}}, "geometry": {"type": "Point", "coordinates": [151.35227262459378, -42.66851795544152]}}, {"type": "Feature", "properties": {"norad_id": 67107, "name": "STARLINK-36196", "group": "last-30-days", "lat": -42.817937438672345, "lon": 148.98821115820832, "alt_km": 334.46549314937056, "timestamp": "2025-12-26T09:30:52.345503+00:00", "meta": {"OBJECT_NAME": "STARLINK-36196", "OBJECT_ID": "2025-299F", "EPOCH": "2025-12-26T04:00:01.998720", "MEAN_MOTION": 15.80259924, "ECCENTRICITY": 0.00016, "INCLINATION": 42.997, "RA_OF_ASC_NODE": 234.3701, "ARG_OF_PERICENTER": 270.0517, "MEAN_ANOMALY": 136.1038, "EPHEMERIS_TYPE": 0, "CLASSIFICATION_TYPE": "U", "NORAD_CAT_ID": 67107, "ELEMENT_SET_NO": 999, "REV_AT_EPOCH": 296, "BSTAR": -0.010288, "MEAN_MOTION_DOT": -0.01761005, "MEAN_MOTION_DDOT": 0}, "tle": {"line1": "1 67107U 25299F   25360.16668980 -.01761005  00000+0 -10288-1 0  9999", "line2": "2 67107  42.9970 234.3701 0001600 270.0517 136.1038 15.80259924  2967"}}, "geometry": {"type": "Point", "coordinates": [148.98821115820832, -42.817937438672345]}}, {"type": "Feature", "properties": {"norad_id": 67108, "name": "STARLINK-36208", "group": "last-30-days", "lat": -42.47214852229077, "lon": 153.6886937407143, "alt_km": 334.2475106706552, "timestamp": "2025-12-26T09:30:52.345520+00:00", "meta": {"OBJECT_NAME": "STARLINK-36208", "OBJECT_ID": "2025-299G", "EPOCH": "2025-12-26T04:00:01.998720", "MEAN_MOTION": 15.80265272, "ECCENTRICITY": 0.0001851, "INCLINATION": 42.997, "RA_OF_ASC_NODE": 234.361, "ARG_OF_PERICENTER": 273.114, "MEAN_ANOMALY": 136.5208, "EPHEMERIS_TYPE": 0, "CLASSIFICATION_TYPE": "U", "NORAD_CAT_ID": 67108, "ELEMENT_SET_NO": 999, "REV_AT_EPOCH": 296, "BSTAR": -0.01021, "MEAN_MOTION_DOT": -0.01749851, "MEAN_MOTION_DDOT": 0}, "tle": {"line1": "1 67108U 25299G   25360.16668980 -.01749851  00000+0 -10210-1 0  9990", "line2": "2 67108  42.9970 234.3610 0001851 273.1140 136.5208 15.80265272  2967"}}, "geometry": {"type": "Point", "coordinates": [153.6886937407143, -42.47214852229077]}}, {"type": "Feature", "properties": {"norad_id": 67109, "name": "STARLINK-35764", "group": "last-30-days", "lat": -42.20988718095368, "lon": 156.16831266949586, "alt_km": 334.31903940719076, "timestamp": "2025-12-26T09:30:52.345531+00:00", "meta": {"OBJECT_NAME": "STARLINK-35764", "OBJECT_ID": "2025-299H", "EPOCH": "2025-12-26T04:00:01.998720", "MEAN_MOTION": 15.80272503, "ECCENTRICITY": 0.0001715, "INCLINATION": 42.9971, "RA_OF_ASC_NODE": 234.3562, "ARG_OF_PERICENTER": 274.4567, "MEAN_ANOMALY": 137.0313, "EPHEMERIS_TYPE": 0, "CLASSIFICATION_TYPE": "U", "NORAD_CAT_ID": 67109, "ELEMENT_SET_NO": 999, "REV_AT_EPOCH": 286, "BSTAR": -0.010245, "MEAN_MOTION_DOT": -0.01755551, "MEAN_MOTION_DDOT": 0}, "tle": {"line1": "1 67109U 25299H   25360.16668980 -.01755551  00000+0 -10245-1 0  9993", "line2": "2 67109  42.9971 234.3562 0001715 274.4567 137.0313 15.80272503  2868"}}, "geometry": {"type": "Point", "coordinates": [156.16831266949586, -42.20988718095368]}}, {"type": "Feature", "properties": {"norad_id": 67110, "name": "STARLINK-35781", "group": "last-30-days", "lat": -41.54936602664822, "lon": 160.91767041009425, "alt_km": 334.3163089640884, "timestamp": "2025-12-26T09:30:52.345541+00:00", "meta": {"OBJECT_NAME": "STARLINK-35781", "OBJECT_ID": "2025-299J", "EPOCH": "2025-12-26T04:00:01.998720", "MEAN_MOTION": 15.80282893, "ECCENTRICITY": 0.0001676, "INCLINATION": 42.9971, "RA_OF_ASC_NODE": 234.3473, "ARG_OF_PERICENTER": 271.8375, "MEAN_ANOMALY": 143.2497, "EPHEMERIS_TYPE": 0, "CLASSIFICATION_TYPE": "U", "NORAD_CAT_ID": 67110, "ELEMENT_SET_NO": 999, "REV_AT_EPOCH": 291, "BSTAR": -0.010274, "MEAN_MOTION_DOT": -0.01760741, "MEAN_MOTION_DDOT": 0}, "tle": {"line1": "1 67110U 25299J   25360.16668980 -.01760741  00000+0 -10274-1 0  9994", "line2": "2 67110  42.9971 234.3473 0001676 271.8375 143.2497 15.80282893  2916"}}, "geometry": {"type": "Point", "coordinates": [160.91767041009425, -41.54936602664822]}}]}